start=new Date('2023-07-04T00:00:00.000Z').valueOf();
sats=[{"TLE_LINE2":"2 55460  43.0032 252.2848 0001730 272.8365  87.2279 15.02542272 23302","EPHEMERIS_TYPE":"0","CLASSIFICATION_TYPE":"U","OBJECT_ID":"2023-015M","BSTAR":"0.00012637000000","RA_OF_ASC_NODE":"252.2848","APOAPSIS":"560.262","OBJECT_NAME":"STARLINK-5678","DECAY_DATE":null,"MEAN_ELEMENT_THEORY":"SGP4","NORAD_CAT_ID":"55460","INCLINATION":"43.0032","RCS_SIZE":"LARGE","TLE_LINE1":"1 55460U 23015M   23184.47834793  .00001504  00000-0  12637-3 0  9996","REV_AT_EPOCH":"2330","FILE":"3948347","ECCENTRICITY":"0.00017300","PERIOD":"95.838","TIME_SYSTEM":"UTC","ARG_OF_PERICENTER":"272.8365","SITE":"AFETR","REF_FRAME":"TEME","GP_ID":"234689704","MEAN_MOTION_DDOT":"0.0000000000000","MEAN_ANOMALY":"87.2279","ELEMENT_SET_NO":"999","SEMIMAJOR_AXIS":"6937.197","MEAN_MOTION":"15.02542272","OBJECT_TYPE":"PAYLOAD","COUNTRY_CODE":"US","EPOCH":"2023-07-03T11:28:49.261152","LAUNCH_DATE":"2023-02-02","PERIAPSIS":"557.862","MEAN_MOTION_DOT":"0.00001504","CENTER_NAME":"EARTH"},{"ELEMENT_SET_NO":"999","SEMIMAJOR_AXIS":"6937.209","MEAN_MOTION":"15.02538533","MEAN_MOTION_DDOT":"0.0000000000000","MEAN_ANOMALY":"88.7779","EPOCH":"2023-07-02T21:13:40.347264","LAUNCH_DATE":"2023-02-02","PERIAPSIS":"557.907","CENTER_NAME":"EARTH","MEAN_MOTION_DOT":"-0.00000536","OBJECT_TYPE":"PAYLOAD","COUNTRY_CODE":"US","FILE":"3948057","TLE_LINE1":"1 55461U 23015N   23183.88449476 -.00000536  00000-0 -24565-4 0  9991","REV_AT_EPOCH":"2321","RCS_SIZE":"LARGE","REF_FRAME":"TEME","GP_ID":"234682841","ECCENTRICITY":"0.00016820","ARG_OF_PERICENTER":"271.2871","PERIOD":"95.838","TIME_SYSTEM":"UTC","SITE":"AFETR","OBJECT_NAME":"STARLINK-5646","DECAY_DATE":null,"MEAN_ELEMENT_THEORY":"SGP4","NORAD_CAT_ID":"55461","INCLINATION":"43.0032","TLE_LINE2":"2 55461  43.0032 255.5647 0001682 271.2871  88.7779 15.02538533 23213","EPHEMERIS_TYPE":"0","CLASSIFICATION_TYPE":"U","OBJECT_ID":"2023-015N","RA_OF_ASC_NODE":"255.5647","APOAPSIS":"560.241","BSTAR":"-0.00002456500000"},{"FILE":"3948753","RCS_SIZE":"LARGE","TLE_LINE1":"1 55462U 23015P   23184.60020889  .00001248  00000-0  10744-3 0  9998","REV_AT_EPOCH":"2332","REF_FRAME":"TEME","GP_ID":"234696911","ECCENTRICITY":"0.00016740","SITE":"AFETR","ARG_OF_PERICENTER":"276.9311","PERIOD":"95.838","TIME_SYSTEM":"UTC","ELEMENT_SET_NO":"999","SEMIMAJOR_AXIS":"6937.209","MEAN_MOTION":"15.02538501","MEAN_MOTION_DDOT":"0.0000000000000","MEAN_ANOMALY":"83.1340","EPOCH":"2023-07-03T14:24:18.048096","CENTER_NAME":"EARTH","MEAN_MOTION_DOT":"0.00001248","LAUNCH_DATE":"2023-02-02","PERIAPSIS":"557.913","OBJECT_TYPE":"PAYLOAD","COUNTRY_CODE":"US","EPHEMERIS_TYPE":"0","TLE_LINE2":"2 55462  43.0036 251.4734 0001674 276.9311  83.1340 15.02538501 23322","CLASSIFICATION_TYPE":"U","OBJECT_ID":"2023-015P","RA_OF_ASC_NODE":"251.4734","APOAPSIS":"560.235","BSTAR":"0.00010744000000","DECAY_DATE":null,"OBJECT_NAME":"STARLINK-5673","MEAN_ELEMENT_THEORY":"SGP4","NORAD_CAT_ID":"55462","INCLINATION":"43.0036"},{"OBJECT_NAME":"STARLINK-5677","DECAY_DATE":null,"MEAN_ELEMENT_THEORY":"SGP4","NORAD_CAT_ID":"55463","INCLINATION":"43.0035","TLE_LINE2":"2 55463  43.0035 251.1539 0001597 274.1340  85.9320 15.02540367 23330","EPHEMERIS_TYPE":"0","CLASSIFICATION_TYPE":"U","OBJECT_ID":"2023-015Q","BSTAR":"0.00007456700000","RA_OF_ASC_NODE":"251.1539","APOAPSIS":"560.176","MEAN_MOTION_DDOT":"0.0000000000000","MEAN_ANOMALY":"85.9320","ELEMENT_SET_NO":"999","SEMIMAJOR_AXIS":"6937.203","MEAN_MOTION":"15.02540367","OBJECT_TYPE":"PAYLOAD","COUNTRY_CODE":"US","EPOCH":"2023-07-03T16:08:00.959712","PERIAPSIS":"557.960","LAUNCH_DATE":"2023-02-02","CENTER_NAME":"EARTH","MEAN_MOTION_DOT":"0.00000804","TLE_LINE1":"1 55463U 23015Q   23184.67223333  .00000804  00000-0  74567-4 0  9996","RCS_SIZE":"LARGE","REV_AT_EPOCH":"2333","FILE":"3948789","ECCENTRICITY":"0.00015970","PERIOD":"95.838","ARG_OF_PERICENTER":"274.1340","TIME_SYSTEM":"UTC","SITE":"AFETR","REF_FRAME":"TEME","GP_ID":"234698018"},{"EPOCH":"2023-07-03T11:01:39.816768","MEAN_MOTION_DOT":"0.00000247","CENTER_NAME":"EARTH","PERIAPSIS":"557.961","LAUNCH_DATE":"2023-02-02","OBJECT_TYPE":"PAYLOAD","COUNTRY_CODE":"US","ELEMENT_SET_NO":"999","SEMIMAJOR_AXIS":"6937.230","MEAN_MOTION":"15.02531577","MEAN_MOTION_DDOT":"0.0000000000000","MEAN_ANOMALY":"85.8504","REF_FRAME":"TEME","GP_ID":"234690319","ECCENTRICITY":"0.00016350","SITE":"AFETR","ARG_OF_PERICENTER":"274.2152","PERIOD":"95.838","TIME_SYSTEM":"UTC","FILE":"3948358","REV_AT_EPOCH":"2330","TLE_LINE1":"1 55464U 23015R   23184.45948862  .00000247  00000-0  33366-4 0  9997","RCS_SIZE":"LARGE","NORAD_CAT_ID":"55464","MEAN_ELEMENT_THEORY":"SGP4","INCLINATION":"43.0030","DECAY_DATE":null,"OBJECT_NAME":"STARLINK-5676","RA_OF_ASC_NODE":"252.1370","APOAPSIS":"560.229","BSTAR":"0.00003336600000","EPHEMERIS_TYPE":"0","TLE_LINE2":"2 55464  43.0030 252.1370 0001635 274.2152  85.8504 15.02531577 23308","OBJECT_ID":"2023-015R","CLASSIFICATION_TYPE":"U"},{"DECAY_DATE":null,"OBJECT_NAME":"STARLINK-5674","INCLINATION":"43.0040","NORAD_CAT_ID":"55465","MEAN_ELEMENT_THEORY":"SGP4","OBJECT_ID":"2023-015S","CLASSIFICATION_TYPE":"U","TLE_LINE2":"2 55465  43.0040 252.1713 0001674 272.5545  87.5106 15.02533605 23122","EPHEMERIS_TYPE":"0","BSTAR":"0.00007860700000","APOAPSIS":"560.250","RA_OF_ASC_NODE":"252.1713","MEAN_ANOMALY":"87.5106","MEAN_MOTION_DDOT":"0.0000000000000","MEAN_MOTION":"15.02533605","ELEMENT_SET_NO":"999","SEMIMAJOR_AXIS":"6937.224","COUNTRY_CODE":"US","OBJECT_TYPE":"PAYLOAD","LAUNCH_DATE":"2023-02-02","PERIAPSIS":"557.928","MEAN_MOTION_DOT":"0.00000858","CENTER_NAME":"EARTH","EPOCH":"2023-07-03T11:08:03.203808","TLE_LINE1":"1 55465U 23015S   23184.46392597  .00000858  00000-0  78607-4 0  9992","RCS_SIZE":"LARGE","REV_AT_EPOCH":"2312","FILE":"3948349","TIME_SYSTEM":"UTC","PERIOD":"95.838","ARG_OF_PERICENTER":"272.5545","SITE":"AFETR","ECCENTRICITY":"0.00016740","GP_ID":"234689722","REF_FRAME":"TEME"},{"MEAN_MOTION_DDOT":"0.0000000000000","MEAN_ANOMALY":"89.5831","SEMIMAJOR_AXIS":"6937.206","ELEMENT_SET_NO":"999","MEAN_MOTION":"15.02539454","OBJECT_TYPE":"PAYLOAD","COUNTRY_CODE":"US","EPOCH":"2023-07-02T14:02:48.471936","MEAN_MOTION_DOT":"-0.00000110","CENTER_NAME":"EARTH","PERIAPSIS":"558.022","LAUNCH_DATE":"2023-02-02","REV_AT_EPOCH":"2317","TLE_LINE1":"1 55466U 23015T   23183.58528324 -.00000110  00000-0  69471-5 0  9996","RCS_SIZE":"LARGE","FILE":"3947824","ECCENTRICITY":"0.00015120","SITE":"AFETR","ARG_OF_PERICENTER":"270.4838","PERIOD":"95.838","TIME_SYSTEM":"UTC","REF_FRAME":"TEME","GP_ID":"234676824","OBJECT_NAME":"STARLINK-5628","DECAY_DATE":null,"MEAN_ELEMENT_THEORY":"SGP4","NORAD_CAT_ID":"55466","INCLINATION":"43.0031","EPHEMERIS_TYPE":"0","TLE_LINE2":"2 55466  43.0031 256.7594 0001512 270.4838  89.5831 15.02539454 23173","OBJECT_ID":"2023-015T","CLASSIFICATION_TYPE":"U","BSTAR":"0.00000694710000","RA_OF_ASC_NODE":"256.7594","APOAPSIS":"560.120"},{"INCLINATION":"43.0033","MEAN_ELEMENT_THEORY":"SGP4","NORAD_CAT_ID":"55467","OBJECT_NAME":"STARLINK-5679","DECAY_DATE":null,"APOAPSIS":"560.212","RA_OF_ASC_NODE":"252.2252","BSTAR":"0.00008529800000","CLASSIFICATION_TYPE":"U","OBJECT_ID":"2023-015U","TLE_LINE2":"2 55467  43.0033 252.2252 0001628 271.8453  88.2203 15.02535507 23303","EPHEMERIS_TYPE":"0","PERIAPSIS":"557.954","LAUNCH_DATE":"2023-02-02","MEAN_MOTION_DOT":"0.00000949","CENTER_NAME":"EARTH","EPOCH":"2023-07-03T11:17:38.570784","COUNTRY_CODE":"US","OBJECT_TYPE":"PAYLOAD","MEAN_MOTION":"15.02535507","ELEMENT_SET_NO":"999","SEMIMAJOR_AXIS":"6937.218","MEAN_ANOMALY":"88.2203","MEAN_MOTION_DDOT":"0.0000000000000","GP_ID":"234689724","REF_FRAME":"TEME","TIME_SYSTEM":"UTC","PERIOD":"95.838","ARG_OF_PERICENTER":"271.8453","SITE":"AFETR","ECCENTRICITY":"0.00016280","FILE":"3948349","TLE_LINE1":"1 55467U 23015U   23184.47058531  .00000949  00000-0  85298-4 0  9997","REV_AT_EPOCH":"2330","RCS_SIZE":"LARGE"},{"ECCENTRICITY":"0.00015110","SITE":"AFETR","PERIOD":"95.838","ARG_OF_PERICENTER":"270.1335","TIME_SYSTEM":"UTC","REF_FRAME":"TEME","GP_ID":"234689738","REV_AT_EPOCH":"2330","TLE_LINE1":"1 55468U 23015V   23184.45615824  .00000473  00000-0  50129-4 0  9997","RCS_SIZE":"LARGE","FILE":"3948350","OBJECT_TYPE":"PAYLOAD","COUNTRY_CODE":"US","EPOCH":"2023-07-03T10:56:52.071936","MEAN_MOTION_DOT":"0.00000473","CENTER_NAME":"EARTH","LAUNCH_DATE":"2023-02-02","PERIAPSIS":"558.047","MEAN_MOTION_DDOT":"0.0000000000000","MEAN_ANOMALY":"89.9334","ELEMENT_SET_NO":"999","SEMIMAJOR_AXIS":"6937.230","MEAN_MOTION":"15.02531493","BSTAR":"0.00005012900000","RA_OF_ASC_NODE":"252.1118","APOAPSIS":"560.144","EPHEMERIS_TYPE":"0","TLE_LINE2":"2 55468  43.0028 252.1118 0001511 270.1335  89.9334 15.02531493 23303","CLASSIFICATION_TYPE":"U","OBJECT_ID":"2023-015V","NORAD_CAT_ID":"55468","MEAN_ELEMENT_THEORY":"SGP4","INCLINATION":"43.0028","DECAY_DATE":null,"OBJECT_NAME":"STARLINK-5672"},{"MEAN_MOTION_DOT":"0.00001944","CENTER_NAME":"EARTH","LAUNCH_DATE":"2023-02-02","PERIAPSIS":"557.751","EPOCH":"2023-07-03T11:04:51.428640","COUNTRY_CODE":"US","OBJECT_TYPE":"PAYLOAD","MEAN_MOTION":"15.02543494","ELEMENT_SET_NO":"999","SEMIMAJOR_AXIS":"6937.193","MEAN_ANOMALY":"74.1573","MEAN_MOTION_DDOT":"0.0000000000000","GP_ID":"234689474","REF_FRAME":"TEME","SITE":"AFETR","TIME_SYSTEM":"UTC","PERIOD":"95.837","ARG_OF_PERICENTER":"285.9062","ECCENTRICITY":"0.00018840","FILE":"3948350","TLE_LINE1":"1 55469U 23015W   23184.46170635  .00001944  00000-0  15889-3 0  9992","RCS_SIZE":"LARGE","REV_AT_EPOCH":"2330","INCLINATION":"43.0041","MEAN_ELEMENT_THEORY":"SGP4","NORAD_CAT_ID":"55469","OBJECT_NAME":"STARLINK-5681","DECAY_DATE":null,"APOAPSIS":"560.365","RA_OF_ASC_NODE":"252.1542","BSTAR":"0.00015889000000","CLASSIFICATION_TYPE":"U","OBJECT_ID":"2023-015W","EPHEMERIS_TYPE":"0","TLE_LINE2":"2 55469  43.0041 252.1542 0001884 285.9062  74.1573 15.02543494 23309"}];
